SATELIOT_1
1 60550U 24149CL  25344.20849224  .00003827  00000-0  33689-3 0  9997
2 60550  97.6939  58.2078 0006371 358.5729   1.5473 14.97067825 71789
SATELIOT_2
1 60534U 24149BU  25344.19804365  .00003145  00000-0  28988-3 0  9993
2 60534  97.7028  57.5408 0001193  68.3442 291.7906 14.95400547 71712
SATELIOT_3
1 60552U 24149CN  25344.18608906  .00003302  00000-0  29119-3 0  9997
2 60552  97.7022  58.8007 0005548  14.2035 345.9342 14.97091150 71793
SATELIOT_4
1 60537U 24149BX  25344.18155234  .00002869  00000-0  26264-3 0  9996
2 60537  97.6946  57.1779 0001315 351.0428   9.0769 14.95741017 71719